ONEWEB-0249             
1 48967U 21060A   25013.84087386  .00000000  00000+0 -34236-4 0  9990
2 48967  87.9110 332.2587 0001886  83.2655 276.8690 13.16592435171279
ONEWEB-0250             
1 48968U 21060B   25013.84770535  .00000029  00000+0  35272-4 0  9997
2 48968  87.9111 331.7097 0002258 112.4373 247.7002 13.25698028171401
ONEWEB-0252             
1 48970U 21060D   25014.40451962  .00000135  00000+0  32036-3 0  9995
2 48970  87.9112 332.1400 0001573  70.9534 289.1767 13.16593459172685
ONEWEB-0253             
1 48971U 21060E   25013.93746045  .00000030  00000+0  44707-4 0  9995
2 48971  87.9111 332.2404 0001616  88.0448 272.0867 13.16592960171263
ONEWEB-0254             
1 48972U 21060F   25013.94694699  .00000050  00000+0  96947-4 0  9999
2 48972  87.9115 332.2200 0001705  99.9109 260.2214 13.16592798171260
ONEWEB-0255             
1 48973U 21060G   25013.60496599 -.00000021  00000+0 -89276-4 0  9999
2 48973  87.9112 332.3217 0001739  93.1094 267.0236 13.16592470171292
ONEWEB-0256             
1 48974U 21060H   25014.23908367 -.00000014  00000+0 -68999-4 0  9992
2 48974  87.9119 332.2053 0001711  78.5181 281.6142 13.16593581172632
ONEWEB-0257             
1 48975U 21060J   25014.11951953 -.00000004  00000+0 -43051-4 0  9990
2 48975  87.9115 332.1943 0001615  81.1868 278.9446 13.16592690172570
